CENTAURI-7              
1 62708U 25009DD  26068.76467094  .00005487  00000+0  48082-3 0  9992
2 62708  97.7123 150.3372 0001973 133.1699 226.9688 14.97068612 62583
STARLINK-36284          
1 67194U 25304C   26068.63330242  .00017567  00000+0  14763-2 0  9994
2 67194  70.0027 174.7092 0003871 265.9749  94.0967 14.98331560 13870
