[{"OBJECT_NAME":"CENTAURI-7","OBJECT_ID":"2025-009DD","EPOCH":"2026-03-09T18:21:07.569216","MEAN_MOTION":14.97068612,"ECCENTRICITY":0.00019728,"INCLINATION":97.7123,"RA_OF_ASC_NODE":150.3372,"ARG_OF_PERICENTER":133.1699,"MEAN_ANOMALY":226.9688,"EPHEMERIS_TYPE":0,"CLASSIFICATION_TYPE":"U","NORAD_CAT_ID":62708,"ELEMENT_SET_NO":999,"REV_AT_EPOCH":6258,"BSTAR":0.00048082234,"MEAN_MOTION_DOT":5.487e-5,"MEAN_MOTION_DDOT":0},{"OBJECT_NAME":"STARLINK-36284","OBJECT_ID":"2025-304C","EPOCH":"2026-03-09T15:11:57.329088","MEAN_MOTION":14.9833156,"ECCENTRICITY":0.0003871,"INCLINATION":70.0027,"RA_OF_ASC_NODE":174.7092,"ARG_OF_PERICENTER":265.9749,"MEAN_ANOMALY":94.0967,"EPHEMERIS_TYPE":0,"CLASSIFICATION_TYPE":"U","NORAD_CAT_ID":67194,"ELEMENT_SET_NO":999,"REV_AT_EPOCH":1387,"BSTAR":0.0014763,"MEAN_MOTION_DOT":0.00017567,"MEAN_MOTION_DDOT":0}]
